ONEWEB-0113             
1 48050U 21025J   23032.17633518  .00000031  00000+0  50690-4 0  9998
2 48050  87.9037 205.0782 0001564  86.2204 273.9104 13.13470975 91854
ONEWEB-0112             
1 48051U 21025K   23032.16363685  .00000232  00000+0  60158-3 0  9995
2 48051  87.9030 205.0384 0001576  94.1675 265.9634 13.13467994 91877
ONEWEB-0156             
1 48052U 21025L   23031.48861502 -.00000004  00000+0 -45245-4 0  9991
2 48052  87.9037 205.1965 0001500  95.1776 264.9525 13.13469962 91753
ONEWEB-0161             
1 48053U 21025M   23031.76583387  .00000371  00000+0  98155-3 0  9997
2 48053  87.9037 205.1236 0001363 102.1338 257.9944 13.13470301 91728
ONEWEB-0158             
1 48054U 21025N   23031.50131746 -.00000198  00000+0 -57802-3 0  9991
2 48054  87.9038 205.2019 0001739  83.3998 276.7329 13.13471291 91814
ONEWEB-0157             
1 48055U 21025P   23031.52459293  .00000055  00000+0  11707-3 0  9998
2 48055  87.9059 205.1634 0001415 105.5554 254.5731 13.13471554 91752
ONEWEB-0162             
1 48056U 21025Q   23032.17210501  .00000147  00000+0  36779-3 0  9996
2 48056  87.9033 205.0371 0001572  94.6958 265.4350 13.13469865 91796
ONEWEB-0155             
1 48057U 21025R   23031.50765043 -.00000602  00000+0 -16837-2 0  9999
2 48057  87.9029 205.1713 0001424  93.9354 266.1938 13.13469460 91860
ONEWEB-0149             
1 48058U 21025S   23031.52882421  .00000093  00000+0  22113-3 0  9999
2 48058  87.9033 205.1668 0001849 104.0205 256.1129 13.13468763 91670
ONEWEB-0148             
1 48059U 21025T   23031.49284000 -.00000076  00000+0 -24326-3 0  9996
2 48059  87.9034 205.1796 0001937 119.7684 240.3638 13.13468150 91799
ONEWEB-0160             
1 48060U 21025U   23031.50976712 -.00000190  00000+0 -55549-3 0  9996
2 48060  87.9034 205.1747 0002373  69.8212 290.3172 13.13471666 91743
ONEWEB-0163             
1 48061U 21025V   23031.49497240 -.00000138  00000+0 -41185-3 0  9992
2 48061  87.9033 205.1662 0001256 111.5783 248.5480 13.13469748 91864
ONEWEB-0159             
1 48062U 21025W   23031.48438958  .00000078  00000+0  17773-3 0  9990
2 48062  87.9038 205.1857 0001380 113.8024 246.3250 13.13469604 91780
ONEWEB-0164             
1 48063U 21025X   23031.77005775  .00000289  00000+0  75677-3 0  9991
2 48063  87.9035 205.1075 0001283  83.6970 276.4305 13.13468068 91807
ONEWEB-0167             
1 48064U 21025Y   23032.18165846 -.00000124  00000+0 -37449-3 0  9999
2 48064  87.9034 205.0328 0001386 107.9638 252.1642 13.13468003 91840
ONEWEB-0166             
1 48065U 21025Z   23031.51824359 -.00000126  00000+0 -37972-3 0  9990
2 48065  87.9029 205.1670 0001575 104.5419 255.5885 13.13469036 91838
ONEWEB-0151             
1 48066U 21025AA  23031.52035972 -.00000016  00000+0 -78836-4 0  9990
2 48066  87.9032 205.1684 0001357  83.4771 276.6513 13.13470087 91775
ONEWEB-0170             
1 48067U 21025AB  23031.52671596  .00000112  00000+0  27306-3 0  9999
2 48067  87.8970 205.1663 0001632  62.9645 297.1650 13.13468170 91737
ONEWEB-0168             
1 48068U 21025AC  23031.51189610 -.00000164  00000+0 -48332-3 0  9991
2 48068  87.9036 205.2034 0001462  98.3857 261.7437 13.13468939 91748
ONEWEB-0173             
1 48069U 21025AD  23031.50554653 -.00000289  00000+0 -82676-3 0  9991
2 48069  87.9038 205.2166 0000928 100.5803 259.5431 13.13472085 91982
ONEWEB-0171             
1 48070U 21025AE  23031.76794990  .00000316  00000+0  83044-3 0  9990
2 48070  87.9039 205.1239 0001515 101.8665 258.2634 13.13470422 91836
ONEWEB-0172             
1 48071U 21025AF  23032.20701691 -.00000099  00000+0 -30635-3 0  9995
2 48071  87.8996 205.0360 0001075  89.1154 271.0099 13.13472024 92787
ONEWEB-0174             
1 48072U 21025AG  23031.50342125 -.00000244  00000+0 -70194-3 0  9997
2 48072  87.9025 205.1852 0001902 109.9552 250.1782 13.13474072 92019
ONEWEB-0175             
1 48073U 21025AH  23031.53094037  .00000201  00000+0  51632-3 0  9994
2 48073  87.9030 205.1635 0001312  72.5655 287.5617 13.13471474 91674
ONEWEB-0177             
1 48074U 21025AJ  23032.22923124  .00000300  00000+0  78732-3 0  9990
2 48074  87.8989 205.0259 0001095 119.6595 240.4643 13.13471292 91958
ONEWEB-0178             
1 48075U 21025AK  23032.17104109  .00000221  00000+0  56997-3 0  9990
2 48075  87.9035 205.0410 0001369 102.4843 257.6439 13.13473403 91994
ONEWEB-0108             
1 48076U 21025AL  23031.52247385  .00000032  00000+0  53594-4 0  9994
2 48076  87.9031 205.1667 0001763  92.6953 267.4378 13.13470533 91831
ONEWEB-0169             
1 48077U 21025AM  23032.23770257  .00000295  00000+0  77177-3 0  9996
2 48077  87.9036 205.0195 0001874  98.4566 261.6775 13.13467711 91829
GAOFEN 12-2             
1 48079U 21026A   23032.24554712  .00000751  00000+0  10517-3 0  9998
2 48079  97.9125  24.4077 0001351  83.5131 276.6225 14.80389166 99473
FEES                    
1 48082U 21022AL  23032.27015902  .00021170  00000+0  10699-2 0  9992
2 48082  97.5138 294.6362 0015447  68.1728 292.1147 15.16982550101181
BEESAT-5                
1 48083U 21022AM  23031.51387286  .00014734  00000+0  81876-3 0  9990
2 48083  97.5075 291.9939 0021129  84.3075 276.0564 15.13608944101364
BEESAT-7                
1 48084U 21022AN  23031.67812403  .00013608  00000+0  76525-3 0  9996
2 48084  97.5098 292.1344 0020852  83.3898 276.9706 15.13204582100970
BEESAT-8                
1 48085U 21022AP  23031.66985481  .00010206  00000+0  59328-3 0  9996
2 48085  97.5117 292.0080 0021026  84.2654 276.0973 15.12086116101522
STARLINK-2048           
1 48092U 21027A   23031.71451576  .00000447  00000+0  48881-4 0  9997
2 48092  53.0537 143.0204 0001181  99.1203 260.9920 15.06402037102691
STARLINK-2404           
1 48093U 21027B   23031.47814917  .00000898  00000+0  79172-4 0  9990
2 48093  53.0520 209.0119 0001196  87.7031 272.4095 15.06397121101754
STARLINK-2412           
1 48094U 21027C   23031.82736824  .00000459  00000+0  49705-4 0  9992
2 48094  53.0524 217.2362 0001107  81.7409 278.3705 15.06399366101278
STARLINK-2414           
1 48095U 21027D   23031.83474629  .00005093  00000+0  36059-3 0  9992
2 48095  53.0526 217.1976 0000747  77.3665 282.7407 15.06395797101682
STARLINK-2417           
1 48096U 21027E   23032.20701747  .00000666  00000+0  63611-4 0  9995
2 48096  53.0533 215.5294 0001122  85.2262 274.8855 15.06398744101320
STARLINK-2418           
1 48097U 21027F   23031.45693198 -.00000120  00000+0  10854-4 0  9999
2 48097  53.0524 198.8981 0000978  86.8151 273.2949 15.06394338101893
STARLINK-2421           
1 48098U 21027G   23031.50024088  .00000742  00000+0  68725-4 0  9991
2 48098  53.0529 208.7009 0001195  91.9263 268.1863 15.06398041101415
STARLINK-2428           
1 48099U 21027H   23031.95269081  .00000743  00000+0  68750-4 0  9994
2 48099  53.0496 216.6829 0001115  93.1801 266.9315 15.06393555101289
STARLINK-2430           
1 48100U 21027J   23031.58225670  .00000774  00000+0  70833-4 0  9991
2 48100  53.0533 198.3359 0001200  97.5889 262.5236 15.06394913101910
STARLINK-2436           
1 48101U 21027K   23031.89737787  .00000623  00000+0  60680-4 0  9995
2 48101  53.0529 206.9252 0001218  85.2671 274.8457 15.06399769101821
STARLINK-2437           
1 48102U 21027L   23031.47536079  .00002097  00000+0  15961-3 0  9999
2 48102  53.0545 198.8100 0001160  84.7708 275.3414 15.06395914101896
STARLINK-2438           
1 48103U 21027M   23032.14894758 -.00000300  00000+0 -12182-5 0  9997
2 48103  53.0524 195.8296 0001242  90.6543 269.4588 15.06391171101595
STARLINK-2439           
1 48104U 21027N   23031.89324819  .00000676  00000+0  64274-4 0  9997
2 48104  53.0533 201.9360 0001180  89.5954 270.5170 15.06401497101493
STARLINK-2440           
1 48105U 21027P   23031.66794460  .00001055  00000+0  89729-4 0  9990
2 48105  53.0534 147.9502 0001121  92.3939 267.7178 15.06402246102223
STARLINK-2442           
1 48106U 21027Q   23031.45324854 -.00000087  00000+0  13032-4 0  9993
2 48106  53.0528 198.9242 0001020  88.6066 271.5040 15.06391526101892
STARLINK-2443           
1 48107U 21027R   23031.66702830  .00001612  00000+0  12706-3 0  9991
2 48107  53.0524 197.9571 0001245  84.6207 275.4924 15.06401116101920
STARLINK-2444           
1 48108U 21027S   23031.90569327  .00001169  00000+0  97395-4 0  9996
2 48108  53.0521 206.8827 0001831  81.2140 278.9057 15.06398705101814
STARLINK-2445           
1 48109U 21027T   23031.78683500 -.00000639  00000+0 -23992-4 0  9998
2 48109  53.0517 217.4197 0001146  92.2773 267.8348 15.06392304101663
STARLINK-2447           
1 48110U 21027U   23031.82826289  .00002891  00000+0  21275-3 0  9999
2 48110  53.0538 207.2369 0000987  85.7957 274.3145 15.06418649101411
STARLINK-2448           
1 48111U 21027V   23031.48917464 -.00003741  00000+0 -23234-3 0  9992
2 48111  53.0523 208.7332 0001550  86.4597 273.6569 15.06401665101767
STARLINK-2449           
1 48112U 21027W   23031.81402976  .00000697  00000+0  65668-4 0  9990
2 48112  53.0515 222.4669 0001102  89.1934 270.9181 15.06395877101591
STARLINK-2450           
1 48113U 21027X   23031.81631467  .00000352  00000+0  42519-4 0  9998
2 48113  53.0500 217.2892 0001453  96.1553 263.9601 15.06394606101655
STARLINK-2451           
1 48114U 21027Y   23031.51173669  .00000668  00000+0  63717-4 0  9994
2 48114  53.0545 213.6465 0001178  86.0016 274.1108 15.06396139101296
STARLINK-2452           
1 48115U 21027Z   23031.60618848  .00001250  00000+0  10278-3 0  9999
2 48115  53.0524 208.2273 0001115  88.5354 271.5763 15.06395820101771
STARLINK-2454           
1 48116U 21027AA  23031.81262272  .00000995  00000+0  85696-4 0  9991
2 48116  53.0540 217.3013 0001337  85.1116 275.0026 15.06398423101669
STARLINK-2455           
1 48117U 21027AB  23031.45230099  .00000586  00000+0  58236-4 0  9990
2 48117  53.0520 198.9194 0001238  89.9717 270.1414 15.06393312101895
